ONEWEB-0018             
1 45434U 20020L   26185.91861666  .00000369  00000+0  10055-2 0  9999
2 45434  87.8880  17.5356 0001486  95.6794 264.4503 13.11414508304950
ONEWEB-0083             
1 45435U 20020M   26185.98502957  .00000605  00000+0  16717-2 0  9996
2 45435  87.8886  17.5170 0001822  90.6794 269.4542 13.11415998305009
ONEWEB-0095             
1 45436U 20020N   26185.97654489  .00000534  00000+0  14697-2 0  9990
2 45436  87.8890  17.5274 0002471  82.0245 278.1164 13.11417348305005
ONEWEB-0092             
1 45437U 20020P   26185.93070703 -.00003123  00000+0 -88541-2 0  9996
2 45437  87.8884  17.5278 0001705  84.4002 275.7320 13.11379012305113
ONEWEB-0085             
1 45438U 20020Q   26185.98475307  .00000559  00000+0  15409-2 0  9992
2 45438  87.8880  17.5227 0001859  89.0835 271.0506 13.11416422305009
ONEWEB-0096             
1 45439U 20020R   26185.98657921  .00000558  00000+0  15380-2 0  9994
2 45439  87.8886  17.5194 0001968  87.9330 272.2024 13.11415281304994
ONEWEB-0037             
1 45440U 20020S   26185.93685388 -.00000402  00000+0 -11615-2 0  9996
2 45440  87.8899  17.5015 0001883  86.9174 273.2169 13.11913152305029
ONEWEB-0042             
1 45441U 20020T   26185.97627661  .00000425  00000+0  11632-2 0  9993
2 45441  87.8888  17.5178 0001786  86.3868 273.7464 13.11417273304995
ONEWEB-0098             
1 45442U 20020U   26185.97215625 -.00005393  00000+0 -15255-1 0  9992
2 45442  87.8888  17.5275 0001807  91.8853 268.2482 13.11450174304977
ONEWEB-0055             
1 45443U 20020V   26185.95083107 -.00000472  00000+0 -13669-2 0  9990
2 45443  87.8885  17.5308 0001887  91.4414 268.6930 13.11417269304946
ONEWEB-0093             
1 45444U 20020W   26185.78102938 -.00000333  00000+0 -98245-3 0  9996
2 45444  87.8885  17.5589 0001602  81.9224 278.2085 13.10890666304983
ONEWEB-0029             
1 45445U 20020X   26185.80529610 -.00000303  00000+0 -89156-3 0  9998
2 45445  87.8880  17.5607 0001584  86.0182 274.1127 13.11417151304963
ONEWEB-0068             
1 45446U 20020Y   26186.00678643 -.00000166  00000+0 -50372-3 0  9998
2 45446  87.8886  17.5166 0001635  86.7324 273.3991 13.11414499304931
ONEWEB-0046             
1 45447U 20020Z   26185.99844696  .00000180  00000+0  47313-3 0  9994
2 45447  87.8878  17.5229 0001781  80.2084 279.9245 13.11415229304944
ONEWEB-0063             
1 45448U 20020AA  26185.95110352 -.00000487  00000+0 -14096-2 0  9999
2 45448  87.8891  17.5331 0002022  82.1226 278.0131 13.11417131305020
ONEWEB-0019             
1 45449U 20020AB  26185.98980991  .00003103  00000+0  87130-2 0  9992
2 45449  87.8866  17.5130 0002985  88.1632 271.9838 13.11438834304876
