{"fetched_at":"2026-07-05T12:47:17.871Z","source":"https://celestrak.org/NORAD/elements/gp.php?GROUP=oneweb&FORMAT=JSON","constellation":"oneweb","records":[{"OBJECT_NAME":"ONEWEB-0018","OBJECT_ID":"2020-020L","EPOCH":"2026-07-04T22:02:48.479424","CLASSIFICATION_TYPE":"U","MEAN_MOTION":13.11414508,"ECCENTRICITY":0.0001486,"INCLINATION":87.888,"RA_OF_ASC_NODE":17.5356,"ARG_OF_PERICENTER":95.6794,"MEAN_ANOMALY":264.4503,"EPHEMERIS_TYPE":0,"NORAD_CAT_ID":45434,"ELEMENT_SET_NO":999,"REV_AT_EPOCH":30495,"BSTAR":0.0010054544,"MEAN_MOTION_DOT":0.00000369,"MEAN_MOTION_DDOT":0},{"OBJECT_NAME":"ONEWEB-0083","OBJECT_ID":"2020-020M","EPOCH":"2026-07-04T23:38:26.554848","CLASSIFICATION_TYPE":"U","MEAN_MOTION":13.11415998,"ECCENTRICITY":0.00018221,"INCLINATION":87.8886,"RA_OF_ASC_NODE":17.517,"ARG_OF_PERICENTER":90.6794,"MEAN_ANOMALY":269.4542,"EPHEMERIS_TYPE":0,"NORAD_CAT_ID":45435,"ELEMENT_SET_NO":999,"REV_AT_EPOCH":30500,"BSTAR":0.0016717053,"MEAN_MOTION_DOT":0.00000605,"MEAN_MOTION_DDOT":0},{"OBJECT_NAME":"ONEWEB-0095","OBJECT_ID":"2020-020N","EPOCH":"2026-07-04T23:26:13.478496","CLASSIFICATION_TYPE":"U","MEAN_MOTION":13.11417348,"ECCENTRICITY":0.00024713,"INCLINATION":87.889,"RA_OF_ASC_NODE":17.5274,"ARG_OF_PERICENTER":82.0245,"MEAN_ANOMALY":278.1164,"EPHEMERIS_TYPE":0,"NORAD_CAT_ID":45436,"ELEMENT_SET_NO":999,"REV_AT_EPOCH":30500,"BSTAR":0.001469675,"MEAN_MOTION_DOT":0.00000534,"MEAN_MOTION_DDOT":0},{"OBJECT_NAME":"ONEWEB-0092","OBJECT_ID":"2020-020P","EPOCH":"2026-07-04T22:20:13.087392","CLASSIFICATION_TYPE":"U","MEAN_MOTION":13.11379012,"ECCENTRICITY":0.00017055,"INCLINATION":87.8884,"RA_OF_ASC_NODE":17.5278,"ARG_OF_PERICENTER":84.4002,"MEAN_ANOMALY":275.732,"EPHEMERIS_TYPE":0,"NORAD_CAT_ID":45437,"ELEMENT_SET_NO":999,"REV_AT_EPOCH":30511,"BSTAR":-0.0088540921,"MEAN_MOTION_DOT":-0.00003123,"MEAN_MOTION_DDOT":0},{"OBJECT_NAME":"ONEWEB-0085","OBJECT_ID":"2020-020Q","EPOCH":"2026-07-04T23:38:02.665248","CLASSIFICATION_TYPE":"U","MEAN_MOTION":13.11416422,"ECCENTRICITY":0.00018599,"INCLINATION":87.888,"RA_OF_ASC_NODE":17.5227,"ARG_OF_PERICENTER":89.0835,"MEAN_ANOMALY":271.0506,"EPHEMERIS_TYPE":0,"NORAD_CAT_ID":45438,"ELEMENT_SET_NO":999,"REV_AT_EPOCH":30500,"BSTAR":0.0015409478,"MEAN_MOTION_DOT":0.00000559,"MEAN_MOTION_DDOT":0},{"OBJECT_NAME":"ONEWEB-0096","OBJECT_ID":"2020-020R","EPOCH":"2026-07-04T23:40:40.443744","CLASSIFICATION_TYPE":"U","MEAN_MOTION":13.11415281,"ECCENTRICITY":0.00019687,"INCLINATION":87.8886,"RA_OF_ASC_NODE":17.5194,"ARG_OF_PERICENTER":87.933,"MEAN_ANOMALY":272.2024,"EPHEMERIS_TYPE":0,"NORAD_CAT_ID":45439,"ELEMENT_SET_NO":999,"REV_AT_EPOCH":30499,"BSTAR":0.0015379927,"MEAN_MOTION_DOT":0.00000558,"MEAN_MOTION_DDOT":0},{"OBJECT_NAME":"ONEWEB-0037","OBJECT_ID":"2020-020S","EPOCH":"2026-07-04T22:29:04.175232","CLASSIFICATION_TYPE":"U","MEAN_MOTION":13.11913152,"ECCENTRICITY":0.00018831,"INCLINATION":87.8899,"RA_OF_ASC_NODE":17.5015,"ARG_OF_PERICENTER":86.9174,"MEAN_ANOMALY":273.2169,"EPHEMERIS_TYPE":0,"NORAD_CAT_ID":45440,"ELEMENT_SET_NO":999,"REV_AT_EPOCH":30502,"BSTAR":-0.0011615125,"MEAN_MOTION_DOT":-0.00000402,"MEAN_MOTION_DDOT":0},{"OBJECT_NAME":"ONEWEB-0042","OBJECT_ID":"2020-020T","EPOCH":"2026-07-04T23:25:50.299104","CLASSIFICATION_TYPE":"U","MEAN_MOTION":13.11417273,"ECCENTRICITY":0.00017862,"INCLINATION":87.8888,"RA_OF_ASC_NODE":17.5178,"ARG_OF_PERICENTER":86.3868,"MEAN_ANOMALY":273.7464,"EPHEMERIS_TYPE":0,"NORAD_CAT_ID":45441,"ELEMENT_SET_NO":999,"REV_AT_EPOCH":30499,"BSTAR":0.0011632212,"MEAN_MOTION_DOT":0.00000425,"MEAN_MOTION_DDOT":0},{"OBJECT_NAME":"ONEWEB-0098","OBJECT_ID":"2020-020U","EPOCH":"2026-07-04T23:19:54.300000","CLASSIFICATION_TYPE":"U","MEAN_MOTION":13.11450174,"ECCENTRICITY":0.00018071,"INCLINATION":87.8888,"RA_OF_ASC_NODE":17.5275,"ARG_OF_PERICENTER":91.8853,"MEAN_ANOMALY":268.2482,"EPHEMERIS_TYPE":0,"NORAD_CAT_ID":45442,"ELEMENT_SET_NO":999,"REV_AT_EPOCH":30497,"BSTAR":-0.015255008,"MEAN_MOTION_DOT":-0.00005393,"MEAN_MOTION_DDOT":0},{"OBJECT_NAME":"ONEWEB-0055","OBJECT_ID":"2020-020V","EPOCH":"2026-07-04T22:49:11.804448","CLASSIFICATION_TYPE":"U","MEAN_MOTION":13.11417269,"ECCENTRICITY":0.0001887,"INCLINATION":87.8885,"RA_OF_ASC_NODE":17.5308,"ARG_OF_PERICENTER":91.4414,"MEAN_ANOMALY":268.693,"EPHEMERIS_TYPE":0,"NORAD_CAT_ID":45443,"ELEMENT_SET_NO":999,"REV_AT_EPOCH":30494,"BSTAR":-0.0013668728,"MEAN_MOTION_DOT":-0.00000472,"MEAN_MOTION_DDOT":0},{"OBJECT_NAME":"ONEWEB-0093","OBJECT_ID":"2020-020W","EPOCH":"2026-07-04T18:44:40.938432","CLASSIFICATION_TYPE":"U","MEAN_MOTION":13.10890666,"ECCENTRICITY":0.00016021,"INCLINATION":87.8885,"RA_OF_ASC_NODE":17.5589,"ARG_OF_PERICENTER":81.9224,"MEAN_ANOMALY":278.2085,"EPHEMERIS_TYPE":0,"NORAD_CAT_ID":45444,"ELEMENT_SET_NO":999,"REV_AT_EPOCH":30498,"BSTAR":-0.00098244629,"MEAN_MOTION_DOT":-0.00000333,"MEAN_MOTION_DDOT":0},{"OBJECT_NAME":"ONEWEB-0029","OBJECT_ID":"2020-020X","EPOCH":"2026-07-04T19:19:37.583040","CLASSIFICATION_TYPE":"U","MEAN_MOTION":13.11417151,"ECCENTRICITY":0.00015844,"INCLINATION":87.888,"RA_OF_ASC_NODE":17.5607,"ARG_OF_PERICENTER":86.0182,"MEAN_ANOMALY":274.1127,"EPHEMERIS_TYPE":0,"NORAD_CAT_ID":45445,"ELEMENT_SET_NO":999,"REV_AT_EPOCH":30496,"BSTAR":-0.00089156241,"MEAN_MOTION_DOT":-0.00000303,"MEAN_MOTION_DDOT":0},{"OBJECT_NAME":"ONEWEB-0068","OBJECT_ID":"2020-020Y","EPOCH":"2026-07-05T00:09:46.347552","CLASSIFICATION_TYPE":"U","MEAN_MOTION":13.11414499,"ECCENTRICITY":0.00016358,"INCLINATION":87.8886,"RA_OF_ASC_NODE":17.5166,"ARG_OF_PERICENTER":86.7324,"MEAN_ANOMALY":273.3991,"EPHEMERIS_TYPE":0,"NORAD_CAT_ID":45446,"ELEMENT_SET_NO":999,"REV_AT_EPOCH":30493,"BSTAR":-0.00050372343,"MEAN_MOTION_DOT":-0.00000166,"MEAN_MOTION_DDOT":0},{"OBJECT_NAME":"ONEWEB-0046","OBJECT_ID":"2020-020Z","EPOCH":"2026-07-04T23:57:45.817344","CLASSIFICATION_TYPE":"U","MEAN_MOTION":13.11415229,"ECCENTRICITY":0.00017818,"INCLINATION":87.8878,"RA_OF_ASC_NODE":17.5229,"ARG_OF_PERICENTER":80.2084,"MEAN_ANOMALY":279.9245,"EPHEMERIS_TYPE":0,"NORAD_CAT_ID":45447,"ELEMENT_SET_NO":999,"REV_AT_EPOCH":30494,"BSTAR":0.00047312736,"MEAN_MOTION_DOT":0.0000018,"MEAN_MOTION_DDOT":0},{"OBJECT_NAME":"ONEWEB-0063","OBJECT_ID":"2020-020AA","EPOCH":"2026-07-04T22:49:35.344128","CLASSIFICATION_TYPE":"U","MEAN_MOTION":13.11417131,"ECCENTRICITY":0.0002022,"INCLINATION":87.8891,"RA_OF_ASC_NODE":17.5331,"ARG_OF_PERICENTER":82.1226,"MEAN_ANOMALY":278.0131,"EPHEMERIS_TYPE":0,"NORAD_CAT_ID":45448,"ELEMENT_SET_NO":999,"REV_AT_EPOCH":30502,"BSTAR":-0.0014096298,"MEAN_MOTION_DOT":-0.00000487,"MEAN_MOTION_DDOT":0},{"OBJECT_NAME":"ONEWEB-0019","OBJECT_ID":"2020-020AB","EPOCH":"2026-07-04T23:45:19.576224","CLASSIFICATION_TYPE":"U","MEAN_MOTION":13.11438834,"ECCENTRICITY":0.00029856,"INCLINATION":87.8866,"RA_OF_ASC_NODE":17.513,"ARG_OF_PERICENTER":88.1632,"MEAN_ANOMALY":271.9838,"EPHEMERIS_TYPE":0,"NORAD_CAT_ID":45449,"ELEMENT_SET_NO":999,"REV_AT_EPOCH":30487,"BSTAR":0.0087129647,"MEAN_MOTION_DOT":0.00003103,"MEAN_MOTION_DDOT":0}]}
